NORAD_CAT_ID,OBJECT_NAME,OBJECT_TYPE,EPOCH,MEAN_MOTION,ECCENTRICITY,INCLINATION,RA_OF_ASC_NODE,ARG_OF_PERICENTER,MEAN_ANOMALY,BSTAR,MEAN_MOTION_DOT,MEAN_MOTION_DDOT,TLE_LINE0,TLE_LINE1,TLE_LINE2,SEMIMAJOR_AXIS,PERIOD,APOGEE,PERIGEE,DECAYED
53538.0,STARLINK-4118,PAYLOAD,2022-09-01 22:00:00,15.73154273,0.0001406999999999,53.2158,89.7799,61.6262,288.0749,0.00030398,0.00042172,0.0,0 STARLINK-4118,1 53538U 22101M   22244.91667824  .00042172  00000-0  30398-3 0  9999,2 53538  53.2158  89.7799 0001407  61.6262 288.0749 15.73154273  1304,6728.026,91.536,350.837,348.944,0.0
53538.0,STARLINK-4118,PAYLOAD,2022-09-02 12:00:02,15.73191148,0.0001271,53.2159,86.891,67.8479,347.5139,0.0005023,0.00070441,0.0,0 STARLINK-4118,1 53538U 22101M   22245.50002315  .00070441  00000-0  50230-3 0  9990,2 53538  53.2159  86.8910 0001271  67.8479 347.5139 15.73191148  2188,6727.92,91.534,350.641,348.93,0.0
53538.0,STARLINK-4118,PAYLOAD,2022-09-02 14:00:01,15.7321695,0.000128,53.2161,86.4791,68.7676,98.7551,0.00029231,0.00040632,0.0,0 STARLINK-4118,1 53538U 22101M   22245.58334491  .00040632  00000-0  29231-3 0  9997,2 53538  53.2161  86.4791 0001280  68.7676  98.7551 15.73216950  1308,6727.847,91.532,350.5730000000001,348.851,0.0
53538.0,STARLINK-4118,PAYLOAD,2022-09-02 20:00:01,15.73250446,0.0001346,53.2157,85.2435,57.9754,86.2663,-0.00025137,-0.00035824,0.0,0 STARLINK-4118,1 53538U 22101M   22245.83334491 -.00035824  00000-0 -25137-3 0  9995,2 53538  53.2157  85.2435 0001346  57.9754  86.2663 15.73250446  2232,6727.751,91.53,350.522,348.711,0.0
53538.0,STARLINK-4118,PAYLOAD,2022-09-02 22:00:01,15.73255388,0.0001349,53.2158,84.8315,55.1378,201.4246,-0.00010468,-0.0001531999999999,0.0,0 STARLINK-4118,1 53538U 22101M   22245.91668981 -.00015320  00000-0 -10468-3 0  9998,2 53538  53.2158  84.8315 0001349  55.1378 201.4246 15.73255388  1305,6727.736999999999,91.53,350.51,348.695,0.0
53538.0,STARLINK-4118,PAYLOAD,2022-09-03 04:00:00,15.73264118,0.0001195,53.2156,83.5924,53.5263,179.7137,-0.00056074,-0.00078797,0.0,0 STARLINK-4118,1 53538U 22101M   22246.16667824 -.00078797  00000-0 -56074-3 0  9991,2 53538  53.2156  83.5924 0001195  53.5263 179.7137 15.73264118  2284,6727.712,91.529,350.381,348.773,0.0
53538.0,STARLINK-4118,PAYLOAD,2022-09-03 14:00:01,15.73271272,0.0001084,53.2159,81.5305,62.1688,12.2835,-0.00031829,-0.00045185,0.0,0 STARLINK-4118,1 53538U 22101M   22246.58334491 -.00045185  00000-0 -31829-3 0  9994,2 53538  53.2159  81.5305 0001084  62.1688  12.2835 15.73271272  2355,6727.691999999999,91.529,350.286,348.82800000000015,0.0
53538.0,STARLINK-4118,PAYLOAD,2022-09-03 22:00:00,15.73195491,0.0001353,53.2161,79.8829,53.9146,109.543,0.00047324,0.00066309,0.0,0 STARLINK-4118,1 53538U 22101M   22246.91667824  .00066309  00000-0  47324-3 0  9996,2 53538  53.2161  79.8829 0001353  53.9146 109.5430 15.73195491  1308,6727.908,91.533,350.68300000000005,348.86300000000006,0.0
53538.0,STARLINK-4118,PAYLOAD,2022-09-04 06:00:00,15.73266948,0.0001331999999999,53.2162,78.2318,57.5032,194.9301,-0.00043585,-0.00061518,0.0,0 STARLINK-4118,1 53538U 22101M   22247.25001157 -.00061518  00000-0 -43585-3 0  9999,2 53538  53.2162  78.2318 0001332  57.5032 194.9301 15.73266948  2454,6727.704000000002,91.529,350.465,348.673,0.0
53538.0,STARLINK-4118,PAYLOAD,2022-09-04 14:00:01,15.73183891,0.0001335,53.2162,76.5817,63.2527,278.2422,-0.00020211,-0.00028868,0.0,0 STARLINK-4118,1 53538U 22101M   22247.58335648 -.00028868  00000-0 -20211-3 0  9992,2 53538  53.2162  76.5817 0001335  63.2527 278.2422 15.73183891  1303,6727.941,91.534,350.704,348.908,0.0
53538.0,STARLINK-4118,PAYLOAD,2022-09-04 20:00:01,15.73207796,0.0001364,53.2167,75.3453,49.3503,268.742,-0.00059451,-0.00083262,0.0,0 STARLINK-4118,1 53538U 22101M   22247.83334491 -.00083262  00000-0 -59451-3 0  9992,2 53538  53.2167  75.3453 0001364  49.3503 268.7420 15.73207796  1305,6727.873000000001,91.533,350.656,348.82,0.0
53538.0,STARLINK-4118,PAYLOAD,2022-09-05 04:00:00,15.73225536,0.0001419,53.2154,73.6963,53.2044,353.7869,-0.00052027,-0.00073086,0.0,0 STARLINK-4118,1 53538U 22101M   22248.16667824 -.00073086  00000-0 -52027-3 0  9993,2 53538  53.2154  73.6963 0001419  53.2044 353.7869 15.73225536  2601,6727.821999999999,91.532,350.642,348.733,0.0
53538.0,STARLINK-4118,PAYLOAD,2022-09-05 14:00:01,15.73195664,0.0001554999999999,53.2158,71.6337,65.4733,182.6662,-0.00034834,-0.00049214,0.0,0 STARLINK-4118,1 53538U 22101M   22248.58334491 -.00049214  00000-0 -34834-3 0  9992,2 53538  53.2158  71.6337 0001555  65.4733 182.6662 15.73195664  1303,6727.908,91.533,350.819,348.726,0.0
53538.0,STARLINK-4118,PAYLOAD,2022-09-05 20:00:01,15.73169584,0.0001681,53.2158,70.3983,57.8751,166.9429,-0.00017883,-0.0002561,0.0,0 STARLINK-4118,1 53538U 22101M   22248.83334491 -.00025610  00000-0 -17883-3 0  9999,2 53538  53.2158  70.3983 0001681  57.8751 166.9429 15.73169584  2704,6727.982,91.535,350.978,348.716,0.0
53538.0,STARLINK-4118,PAYLOAD,2022-09-06 04:00:00,15.731589199999998,0.0001516,53.2159,68.7478,54.5278,259.1883,0.00020594,0.00028329,0.0,0 STARLINK-4118,1 53538U 22101M   22249.16667824  .00028329  00000-0  20594-3 0  9996,2 53538  53.2159  68.7478 0001516  54.5278 259.1883 15.73158920  2756,6728.012,91.536,350.897,348.857,0.0
53538.0,STARLINK-4118,PAYLOAD,2022-09-06 12:00:00,15.73175781,0.0001608,53.2161,67.0973,62.1157,340.4651,-0.00028838,-0.00040856,0.0,0 STARLINK-4118,1 53538U 22101M   22249.50001157 -.00040856  00000-0 -28838-3 0  9995,2 53538  53.2161  67.0973 0001608  62.1157 340.4651 15.73175781  2812,6727.964,91.535,350.911,348.747,0.0
53538.0,STARLINK-4118,PAYLOAD,2022-09-06 14:00:01,15.73173902,0.0001655,53.216,66.6854,61.0391,93.7744,-0.00016443,-0.00023607,0.0,0 STARLINK-4118,1 53538U 22101M   22249.58334491 -.00023607  00000-0 -16443-3 0  9997,2 53538  53.2160  66.6854 0001655  61.0391  93.7744 15.73173902  1301,6727.97,91.535,350.9480000000001,348.721,0.0
53538.0,STARLINK-4118,PAYLOAD,2022-09-06 20:00:01,15.73140487,0.0001846,53.2157,65.4499,55.9598,75.5224,0.00047853,0.00066905,0.0,0 STARLINK-4118,1 53538U 22101M   22249.83334491  .00066905  00000-0  47853-3 0  9990,2 53538  53.2157  65.4499 0001846  55.9598  75.5224 15.73140487  2867,6728.065,91.537,351.172,348.68800000000016,0.0
53538.0,STARLINK-4118,PAYLOAD,2022-09-06 22:00:00,15.73134721,0.0001857,53.2156,65.0378,54.1826,189.5211,0.00073756,0.00103891,0.0,0 STARLINK-4118,1 53538U 22101M   22249.91667824  .00103891  00000-0  73756-3 0  9995,2 53538  53.2156  65.0378 0001857  54.1826 189.5211 15.73134721  1309,6728.081,91.537,351.196,348.69699999999995,0.0
53538.0,STARLINK-4118,PAYLOAD,2022-09-07 14:00:01,15.73249221,0.0001656,53.2155,61.7369,60.0136,1.5119999999999998,0.00020767,0.00028686,0.0,0 STARLINK-4118,1 53538U 22101M   22250.58334491  .00028686  00000-0  20767-3 0  9993,2 53538  53.2155  61.7369 0001656  60.0136   1.5120 15.73249221  1302,6727.755,91.53,350.7340000000001,348.506,0.0
53538.0,STARLINK-4118,PAYLOAD,2022-09-07 22:00:00,15.73272024,0.0001655,53.2155,60.0889,48.7358,101.7904,-3.7727e-06,-1.152e-05,0.0,0 STARLINK-4118,1 53538U 22101M   22250.91667824 -.00001152  00000-0 -37727-5 0  9996,2 53538  53.2155  60.0889 0001655  48.7358 101.7904 15.73272024  3031,6727.69,91.529,350.668,348.441,0.0
53538.0,STARLINK-4118,PAYLOAD,2022-09-08 14:00:01,15.73214321,0.0001499,53.2158,56.7877,47.8975,280.635,-9.6154e-05,-0.00014101,0.0,0 STARLINK-4118,1 53538U 22101M   22251.58334491 -.00014101  00000-0 -96154-4 0  9997,2 53538  53.2158  56.7877 0001499  47.8975 280.6350 15.73214321  1300,6727.854,91.532,350.728,348.711,0.0
53538.0,STARLINK-4118,PAYLOAD,2022-09-08 22:00:00,15.73221875,0.0001684,53.2153,55.1394,39.6265,17.8502,-0.00015079,-0.00021749,0.0,0 STARLINK-4118,1 53538U 22101M   22251.91667824 -.00021749  00000-0 -15079-3 0  9995,2 53538  53.2153  55.1394 0001684  39.6265  17.8502 15.73221875  3199,6727.833000000001,91.532,350.831,348.565,0.0
53538.0,STARLINK-4118,PAYLOAD,2022-09-09 14:00:01,15.73208019,0.000148,53.2156,51.8389,44.7915,190.5129,-0.00019753,-0.00028259,0.0,0 STARLINK-4118,1 53538U 22101M   22252.58334491 -.00028259  00000-0 -19753-3 0  9996,2 53538  53.2156  51.8389 0001480  44.7915 190.5129 15.73208019  1302,6727.871999999999,91.533,350.733,348.742,0.0
53538.0,STARLINK-4118,PAYLOAD,2022-09-09 22:00:00,15.73146849,0.0001673,53.2157,50.19,33.7579,290.4836,0.00046395,0.00064849,0.0,0 STARLINK-4118,1 53538U 22101M   22252.91667824  .00064849  00000-0  46395-3 0  9997,2 53538  53.2157  50.1900 0001673  33.7579 290.4836 15.73146849  1309,6728.047,91.536,351.037,348.786,0.0
53538.0,STARLINK-4118,PAYLOAD,2022-09-10 04:00:00,15.73218475,0.0001549,53.216,48.9517,37.4944,263.4441,-0.00038586,-0.00054468,0.0,0 STARLINK-4118,1 53538U 22101M   22253.16667824 -.00054468  00000-0 -38586-3 0  9996,2 53538  53.2160  48.9517 0001549  37.4944 263.4441 15.73218475  3388,6727.843000000003,91.532,350.75,348.665,0.0
53538.0,STARLINK-4118,PAYLOAD,2022-09-10 12:00:00,15.73194096,0.000166,53.2163,47.3019,42.5153,347.3371,0.00034499,0.00048063,0.0,0 STARLINK-4118,1 53538U 22101M   22253.50001157  .00048063  00000-0  34499-3 0  9996,2 53538  53.2163  47.3019 0001660  42.5153 347.3371 15.73194096  3436,6727.9119999999975,91.534,350.894,348.66,0.0
53538.0,STARLINK-4118,PAYLOAD,2022-09-10 14:00:01,15.73197013,0.000172,53.2162,46.8901,40.6174,101.4478,0.0001713,0.00023485,0.0,0 STARLINK-4118,1 53538U 22101M   22253.58334491  .00023485  00000-0  17130-3 0  9998,2 53538  53.2162  46.8901 0001720  40.6174 101.4478 15.73197013  1301,6727.904,91.533,350.926,348.611,0.0
53538.0,STARLINK-4118,PAYLOAD,2022-09-10 20:00:01,15.73215391,0.0001846,53.2161,45.6538,34.1034,84.6614,-7.0907e-05,-0.00010567,0.0,0 STARLINK-4118,1 53538U 22101M   22253.83334491 -.00010567  00000-0 -70907-4 0  9997,2 53538  53.2161  45.6538 0001846  34.1034  84.6614 15.73215391  3491,6727.851,91.532,350.958,348.474,0.0
